0 CZ-2C DEB
1 37770U 11039F   24061.73998103  .00009152  00000-0  14611-2 0  9993
2 37770  97.9255 342.8214 0074230 243.2917 169.9301 14.70249600668801
0 CZ-2C DEB
1 37769U 11039E   24062.40842903  .00018339  00000-0  23591-2 0  9996
2 37769  98.3688 344.4530 0061570 358.1669 126.0662 14.79834384671385
0 CZ-2C DEB
1 37768U 11039D   24061.84228119  .00002984  00000-0  94925-3 0  9998
2 37768  98.2754  23.3727 0137900 239.0187 180.7863 14.35293703656706
0 CZ-2C DEB
1 37767U 11039C   24062.31498672  .00004244  00000-0  13299-2 0  9998
2 37767  97.9271 183.2790 0140717 108.3140 253.3414 14.35522160656620
0 CZ-2C R/B
1 37766U 11039B   24061.71139115  .00000825  00000-0  15061-3 0  9995
2 37766  98.1980 310.4358 0045802  85.5131 275.1304 14.67967427673812
0 SJ-11-02
1 37765U 11039A   24062.56516611  .00000670  00000-0  14151-3 0  9995
2 37765  98.3765 294.1894 0011024   5.3502  53.4312 14.62627500671575
0 FREGAT DEB (TANK)
1 37756U 11037B   24061.37229465  .00005901  00000-0  12352-2 0  9991
2 37756  51.4364 133.8228 1863466 159.2671 209.5178 11.35518488519488
0 GLOBALSTAR M089
1 37744U 11033F   24061.65629373 -.00000088  00000-0  86369-4 0  9990
2 37744  51.9921 179.9935 0001007  92.5114  13.3622 12.62254676585014
0 GLOBALSTAR M081
1 37743U 11033E   24062.64042113 -.00000089  00000-0  79764-4 0  9992
2 37743  51.9935 222.6792 0000698  76.1122   4.9331 12.62270252584297
0 GLOBALSTAR M085
1 37742U 11033D   24061.72813612 -.00000088  00000-0  85752-4 0  9992
2 37742  51.9844 222.9622 0000629  91.8018 281.1377 12.62268197584038
0 GLOBALSTAR M091
1 37741U 11033C   24062.86961152 -.00000084  00000-0  10814-3 0  9992
2 37741  51.9981 268.0312 0000597  69.3072  33.8714 12.62271915583667
0 GLOBALSTAR M088
1 37740U 11033B   24061.90110424 -.00000077  00000-0  14733-3 0  9999
2 37740  51.9745 308.2707 0000545  60.7021  19.3053 12.62265424583046
0 GLOBALSTAR M083
1 37739U 11033A   24062.24931200 -.00000107  00000-0 -17187-4 0  9990
2 37739  51.9868  41.3173 0000135  98.8911   3.6499 12.62265969587258
0 CZ-2C DEB
1 37735U 11030F   24062.57113344  .00008753  00000-0  13273-2 0  9993
2 37735  98.5217 281.9274 0070131 343.4215  69.3650 14.72709194673386
0 CZ-2C DEB
1 37734U 11030E   24061.60809395  .00009047  00000-0  14265-2 0  9992
2 37734  98.1315   3.4143 0067820 211.3088 323.7685 14.71105207672146
0 CZ-2C DEB
1 37733U 11030D   24062.56258448  .00002695  00000-0  87284-3 0  9998
2 37733  98.4770  14.8225 0141105 218.2480 194.2212 14.34284533659355
0 CZ-2C DEB
1 37732U 11030C   24061.84859838  .00003707  00000-0  12444-2 0  9997
2 37732  98.0241 154.6105 0154006 143.4988 339.0527 14.31230024658281
0 CZ-2C R/B
1 37731U 11030B   24062.52700251  .00001601  00000-0  22793-3 0  9996
2 37731  97.7512  30.4154 0055543 225.1508 250.8987 14.77136406681100
0 SJ-11-03
1 37730U 11030A   24061.94229368  .00000961  00000-0  20041-3 0  9997
2 37730  97.8338  51.9577 0009181 152.5418 261.2340 14.62003414674661
0 FENGYUN 1C DEB
1 37717U 99025EMJ 24061.51653071  .00010170  00000-0  20141-2 0  9990
2 37717  98.7268 321.7394 0105430 354.9465 129.5813 14.58989341798033
0 FENGYUN 1C DEB
1 37714U 99025EMF 24061.22031112  .00004175  00000-0  19238-2 0  9994
2 37714  98.8829 156.8706 0060352 171.1129 189.1131 14.20636333482198
0 FENGYUN 1C DEB
1 37695U 99025ELL 24062.61502410  .00004634  00000-0  28590-2 0  9991
2 37695  98.2219 197.7481 0483611 193.3318 235.9430 13.60239780803962
0 FENGYUN 1C DEB
1 37693U 99025ELJ 24061.54508168  .00000861  00000-0  53358-3 0  9995
2 37693  98.7029  79.7248 0075199 114.5634  36.4429 14.06306130529881
0 FENGYUN 1C DEB
1 37690U 99025ELF 24062.96669278  .00001938  00000-0  10682-2 0  9997
2 37690  98.8080 108.6398 0040731 349.9034 130.6946 14.12302501777135
0 FENGYUN 1C DEB
1 37689U 99025ELE 24062.25295719  .00007546  00000-0  28765-2 0  9994
2 37689  98.9520  68.8694 0025517  13.2301 346.9545 14.30934440484496
0 FENGYUN 1C DEB
1 37683U 99025EKY 24061.39676021  .00001976  00000-0  16694-2 0  9990
2 37683  97.9906 118.9121 0606140 338.1956  77.8203 13.26237439205873
0 FENGYUN 1C DEB
1 37682U 99025EKX 24061.63164137  .00002194  00000-0  21677-2 0  9996
2 37682  98.6121 130.6188 0234201 292.5673  65.0846 13.68103901535169
0 SAC-D (AQUARIUS)
1 37673U 11024A   24061.90667271  .00001262  00000-0  19365-3 0  9993
2 37673  97.9995  72.6695 0000834  76.1544 346.0522 14.75326995684172
0 DELTA 1 DEB
1 37670U 78026KH  24062.57765925  .00000074  00000-0  98276-4 0  9993
2 37670  99.0717 336.4000 0070440 247.0192 112.3523 13.87014709537602
0 DELTA 1 DEB
1 37669U 78026KG  24061.26508167  .00000257  00000-0  18857-3 0  9998
2 37669  99.2109  71.4526 0010838 275.4488 148.0275 14.04988175151793
0 DELTA 1 DEB
1 37667U 78026KE  24062.84426080  .00008402  00000-0  15129-2 0  9992
2 37667  98.3221  75.2327 0035902 326.9341  32.9617 14.66408533567870
0 DELTA 1 DEB
1 37666U 78026KD  24062.85924923  .00000880  00000-0  44398-3 0  9994
2 37666  98.9917  75.0542 0037155 194.8936 165.1148 14.18590361 89873
0 DELTA 1 DEB
1 37661U 78026JY  24061.64511170  .00000392  00000-0  64718-3 0  9997
2 37661  98.9262  24.4685 0331767  94.9489 268.9593 13.32226443 40815
0 DELTA 1 DEB
1 37656U 78026JT  24061.15525833  .00000507  00000-0  30922-3 0  9996
2 37656  99.0805  38.4709 0017836 213.8264 146.1769 14.10648956 73730
0 DELTA 1 DEB
1 37654U 78026JR  24061.13702841  .00000489  00000-0  18260-3 0  9998
2 37654  98.5772  28.9474 0109653 284.7924 135.9941 14.33075113 88285
0 DELTA 1 DEB
1 37653U 78026JQ  24061.24174861  .00000373  00000-0  26290-3 0  9998
2 37653  99.2317  65.8274 0037689 224.3796 197.5390 14.04183780543692
0 DELTA 1 DEB
1 37651U 78026JN  24061.02072164  .00001679  00000-0  70686-3 0  9993
2 37651  99.1103 128.7005 0036974 346.2974  13.7198 14.26840089 83815
0 DELTA 1 DEB
1 37648U 78026JK  24061.68488758  .00000344  00000-0  14603-3 0  9996
2 37648  98.7200  38.7066 0101500 263.9148 272.2606 14.28840564556289
0 DELTA 1 DEB
1 37643U 78026JE  24061.25942968  .00000909  00000-0  38037-3 0  9996
2 37643  98.7996  79.2270 0044778 123.8286 236.7169 14.27985485118681
0 DELTA 1 DEB
1 37641U 78026JC  24062.84423542  .00002043  00000-0  80113-3 0  9995
2 37641  98.8241  73.2574 0074080 354.2487   5.7836 14.29038127238431
0 DELTA 1 DEB
1 37640U 78026JB  24061.40998799  .00002129  00000-0  98856-3 0  9994
2 37640  98.7540 314.6493 0041348 200.8304 159.1189 14.21267238 42109
0 CZ-4 DEB
1 37626U 90081DN  24061.22014069  .00000423  00000-0  46557-3 0  9998
2 37626  98.8522  57.4053 0164919  88.9475 333.6517 13.71396083 26383
0 CZ-4 DEB
1 37625U 90081DM  24062.73532065  .00005974  00000-0  17456-2 0  9996
2 37625  98.3353  62.6975 0003798  88.5394 271.6232 14.44376312112771
0 CZ-4 DEB
1 37613U 90081CZ  24062.77528844  .00006475  00000-0  39366-2 0  9998
2 37613  98.8481 256.9108 0174760 233.7385 124.7524 13.99239211 16054
0 CZ-4 DEB
1 37610U 90081CW  24062.98997316  .00000429  00000-0  43971-3 0  9993
2 37610  99.1519 339.7349 0151198 273.1320  85.2541 13.77045700 51010
0 FENGYUN 1C DEB
1 37600U 99025EKU 24062.78863797  .00003817  00000-0  25448-2 0  9994
2 37600  98.9105 253.5385 0408426 342.1379  16.5760 13.67834668795394
0 FENGYUN 1C DEB
1 37595U 99025EKP 24061.65291760  .00011996  00000-0  43320-2 0  9993
2 37595  99.0578 214.8598 0049716 164.5100 261.7094 14.33010173531618
0 FENGYUN 1C DEB
1 37594U 99025EKN 24061.04813844  .00000505  00000-0  30100-3 0  9995
2 37594  98.8096  99.9301 0086250 315.7192  43.7099 14.09979508685744
0 FENGYUN 1C DEB
1 37593U 99025EKM 24062.38090458  .00005218  00000-0  18053-2 0  9998
2 37593  99.0831 263.8913 0166910 211.8588 272.0430 14.28630370768077
0 FENGYUN 1C DEB
1 37591U 99025EKK 24061.10440109  .00007396  00000-0  32226-2 0  9994
2 37591  98.4240  16.5239 0120991 136.0849 285.4878 14.20368628571132
0 SL-24 DEB
1 37586U 04025L   24061.50227889  .00003360  00000-0  14695-2 0  9993
2 37586  98.2289 148.1180 0309973 258.1901  98.4349 14.01788803689043
0 THOR BURNER 2A DEB
1 37584U 74015H   24061.72891485  .00005799  00000-0  12257-2 0  9990
2 37584  99.0987 231.3182 0086327 336.7705  22.9599 14.57438631876030
0 CZ-4B DEB
1 37581U 99025EKE 24062.34556924  .00001204  00000-0  50557-3 0  9993
2 37581  98.8025  98.8291 0110787 129.2964 296.1969 14.24429872124206
0 CZ-4B DEB
1 37580U 99025EKD 24061.62082067  .00000607  00000-0  36497-3 0  9997
2 37580  98.9090 105.5202 0125857 239.9509 273.9068 14.06786024 59894
0 CZ-4B DEB
1 37574U 08026F   24062.44963123  .00000451  00000-0  41326-3 0  9997
2 37574  98.8483 130.1376 0251248  17.4344 343.5242 13.74371383574711
0 CZ-4B DEB
1 37572U 08026D   24061.96070694  .00000522  00000-0  46379-3 0  9995
2 37572  98.7713 117.3718 0241097 302.0784 181.3545 13.76605445780155
0 CZ-4B DEB
1 37571U 08026C   24062.48608711  .00000425  00000-0  38642-3 0  9995
2 37571  98.9158 157.7583 0244992 358.8455   1.2102 13.75811933587422
0 CZ-4C DEB
1 37570U 10038F   24061.22317755  .00004028  00000-0  73144-3 0  9995
2 37570  97.9027 150.2109 0157975  15.4213 345.1721 14.58913615715274
0 CZ-4C DEB
1 37569U 10038E   24061.58276514  .00013934  00000-0  20693-2 0  9995
2 37569  97.8810 188.0309 0134073 196.1031 163.5894 14.69137823715152
0 CZ-4C DEB
1 37568U 10038D   24061.24768314  .00004587  00000-0  83776-3 0  9997
2 37568  97.9579 167.0223 0159747  55.0948 306.5146 14.58416529712798
0 CZ-4C DEB
1 37567U 10038C   24061.51534851  .00008385  00000-0  11477-2 0  9991
2 37567  97.7521 262.2168 0123160 108.8279 282.5287 14.73556555717898
0 IRIDIUM 33 DEB
1 37562U 97051XX  24061.52260597  .00003833  00000-0  10693-2 0  9992
2 37562  86.3805 325.0552 0029080 124.9771 354.3154 14.45820252768826
0 IRIDIUM 33 DEB
1 37548U 97051XH  24062.48299747  .00003665  00000-0  11178-2 0  9993
2 37548  86.3571 324.0743 0026057 193.8240 166.2250 14.41547882561300
0 COSMOS 2251 DEB
1 37547U 93036BPC 24061.21537032  .00026372  00000-0  32818-2 0  9997
2 37547  74.0299  40.2440 0022895 324.6363  35.3294 14.82228485764801
